OBJECT_NAME,OBJECT_ID,EPOCH,MEAN_MOTION,ECCENTRICITY,INCLINATION,RA_OF_ASC_NODE,ARG_OF_PERICENTER,MEAN_ANOMALY,EPHEMERIS_TYPE,CLASSIFICATION_TYPE,NORAD_CAT_ID,ELEMENT_SET_NO,REV_AT_EPOCH,BSTAR,MEAN_MOTION_DOT,MEAN_MOTION_DDOT
STARLINK-36110,2025-286W,2026-06-27T19:21:57.970944,15.34396881,.00012077,53.1581,205.7313,82.6800,277.4340,0,U,66945,999,3229,.56205101E-3,.18659E-3,0
STARLINK-36115,2025-286X,2026-06-27T19:09:50.718816,15.34399331,.0001247,53.1579,205.6794,79.7732,280.3411,0,U,66946,999,3229,.61682877E-3,.20521E-3,0
STARLINK-36089,2025-286Y,2026-06-27T19:31:03.072864,15.34402123,.00008322,53.1579,205.7674,69.3204,290.7887,0,U,66947,999,3229,.44071018E-3,.14544E-3,0
STARLINK-36116,2025-286Z,2026-06-27T12:00:14.943744,15.34394590,.00009024,53.1572,207.3704,92.4705,267.6401,0,U,66948,999,3223,.5585948E-3,.1854E-3,0
STARLINK-36096,2025-286AA,2026-06-27T18:27:26.246592,15.34374367,.00010801,53.1567,205.4964,88.2083,271.9043,0,U,66949,999,3229,.48771324E-3,.16124E-3,0
STARLINK-36111,2025-286AB,2026-06-27T18:24:23.903712,15.34393465,.00010989,53.1559,205.4797,83.4526,276.6602,0,U,66950,999,3229,.51078654E-3,.16917E-3,0
STARLINK-35999,2025-286AC,2026-06-27T19:18:56.143008,15.34397792,.00011536,53.1578,205.7131,84.5468,275.5666,0,U,66951,999,3229,.63054481E-3,.20986E-3,0
STARLINK-36122,2025-286AD,2026-06-27T18:54:41.770080,15.34394980,.00012563,53.1579,205.6117,93.1808,266.9338,0,U,66952,999,3229,.53577368E-3,.17766E-3,0
STARLINK-35887,2025-288A,2026-06-27T21:33:24.194016,15.27585184,.00013126,43.0015,120.9505,247.3130,112.7584,0,U,66959,999,3214,.62804236E-3,.17063E-3,0
STARLINK-35879,2025-288B,2026-06-27T20:19:36.220800,15.27584492,.0001369,42.9989,121.4192,244.3080,115.7630,0,U,66960,999,3213,.6042559E-3,.16405E-3,0
STARLINK-35761,2025-288C,2026-06-27T21:03:47.990592,15.27587943,.00014984,43.0039,120.7950,258.8869,101.1815,0,U,66961,999,3214,.67871677E-3,.18466E-3,0
STARLINK-35874,2025-288D,2026-06-27T20:58:28.257024,15.27556385,.00015171,43.0019,121.6231,278.1072,81.9607,0,U,66962,999,3213,.66805124E-3,.18153E-3,0
STARLINK-36133,2025-288E,2026-06-27T20:21:27.107424,15.27594362,.00022202,43.0005,121.4284,280.9729,79.0873,0,U,66963,999,3213,.94460217E-3,.25834E-3,0
STARLINK-36104,2025-288F,2026-06-27T12:54:43.608672,15.27582761,.00010887,42.9967,123.4021,280.2702,79.8027,0,U,66964,999,3208,.66760587E-3,.18156E-3,0
STARLINK-36067,2025-288G,2026-06-27T21:20:27.223008,15.27581272,.00012154,43.0020,120.8833,264.7288,95.3425,0,U,66965,999,3214,.45386002E-3,.12248E-3,0
STARLINK-36139,2025-288H,2026-06-27T21:22:17.942880,15.27590593,.00009409,43.0010,120.8870,274.9955,85.0789,0,U,66966,999,3214,.76408075E-3,.2083E-3,0
STARLINK-36136,2025-288J,2026-06-27T21:37:06.042432,15.27572718,.00011462,43.0019,120.9625,254.8056,105.2669,0,U,66967,999,3214,.73690997E-3,.20067E-3,0
STARLINK-36152,2025-288K,2026-06-27T03:20:31.787520,15.27601446,.00006915,42.9976,125.5686,131.4746,228.6165,0,U,66968,999,3202,.86190596E-3,.23547E-3,0
STARLINK-36149,2025-288L,2026-06-27T12:58:25.371552,15.27574828,.00015559,42.9982,123.4224,269.6951,90.3722,0,U,66969,999,3208,.66588501E-3,.18104E-3,0
STARLINK-35703,2025-288M,2026-06-27T21:16:44.428512,15.27580938,.0000869,42.9969,120.8554,244.4576,115.6186,0,U,66970,999,3214,.58691581E-3,.15924E-3,0
STARLINK-35678,2025-288N,2026-06-27T20:10:20.917632,15.27587334,.00014155,43.0020,121.3680,233.6934,126.3787,0,U,66971,999,3213,.77490876E-3,.21128E-3,0
STARLINK-34846,2025-288P,2026-06-27T21:27:51.242976,15.27585656,.000099,43.0010,120.9144,247.7597,112.3150,0,U,66972,999,3214,.61485101E-3,.16698E-3,0
STARLINK-35778,2025-288Q,2026-06-27T21:09:19.567872,15.27568037,.00010156,43.0047,120.8242,283.1135,76.9603,0,U,66973,999,3214,-.20408575E-3,-.5871E-4,0
STARLINK-35780,2025-288R,2026-06-27T21:00:05.585760,15.27571873,.00012114,43.0008,120.7673,263.7504,96.3210,0,U,66974,999,3214,.6641439E-3,.18054E-3,0
STARLINK-35777,2025-288S,2026-06-27T20:56:36.623040,15.27586422,.0001223,42.9998,121.6161,266.1738,93.8974,0,U,66975,999,3213,.60524733E-3,.16433E-3,0
STARLINK-35772,2025-288T,2026-06-27T20:08:30.455232,15.27582582,.00013084,43.0004,121.4044,219.8039,140.2717,0,U,66976,999,3213,.62019765E-3,.16845E-3,0
STARLINK-35770,2025-288U,2026-06-27T20:34:24.330720,15.27592384,.00020184,42.9978,121.4942,271.1628,88.8992,0,U,66977,999,3213,.99805679E-3,.27315E-3,0
STARLINK-35787,2025-288V,2026-06-27T21:14:53.839104,15.27586228,.00009343,43.0017,120.8523,263.2757,96.7989,0,U,66978,999,3214,.62811429E-3,.17065E-3,0
STARLINK-36107,2025-288W,2026-06-27T13:03:58.097088,15.27587781,.00013577,42.9990,123.4445,269.7319,90.3377,0,U,66979,999,3208,.40731567E-3,.10966E-3,0
STARLINK-36086,2025-288X,2026-06-27T20:39:57.268800,15.27591164,.00007256,42.9986,121.5270,243.7753,116.3024,0,U,66980,999,3213,.10000137E-2,.27368E-3,0
