STARLINK-36110          
1 66945U 25286W   26178.80692096  .00018659  00000+0  56205-3 0  9996
2 66945  53.1581 205.7313 0001207  82.6800 277.4340 15.34396881 32291
STARLINK-36115          
1 66946U 25286X   26178.79850369  .00020521  00000+0  61683-3 0  9991
2 66946  53.1579 205.6794 0001247  79.7732 280.3411 15.34399331 32291
STARLINK-36089          
1 66947U 25286Y   26178.81323001  .00014544  00000+0  44071-3 0  9993
2 66947  53.1579 205.7674 0000832  69.3204 290.7887 15.34402123 32294
STARLINK-36116          
1 66948U 25286Z   26178.50017296  .00018540  00000+0  55859-3 0  9992
2 66948  53.1572 207.3704 0000902  92.4705 267.6401 15.34394590 32238
STARLINK-36096          
1 66949U 25286AA  26178.76905378  .00016124  00000+0  48771-3 0  9999
2 66949  53.1567 205.4964 0001080  88.2083 271.9043 15.34374367 32296
STARLINK-36111          
1 66950U 25286AB  26178.76694333  .00016917  00000+0  51079-3 0  9992
2 66950  53.1559 205.4797 0001098  83.4526 276.6602 15.34393465 32294
STARLINK-35999          
1 66951U 25286AC  26178.80481647  .00020986  00000+0  63054-3 0  9997
2 66951  53.1578 205.7131 0001153  84.5468 275.5666 15.34397792 32295
STARLINK-36122          
1 66952U 25286AD  26178.78798345  .00017766  00000+0  53577-3 0  9992
2 66952  53.1579 205.6117 0001256  93.1808 266.9338 15.34394980 32294
STARLINK-35887          
1 66959U 25288A   26178.89819669  .00017063  00000+0  62804-3 0  9999
2 66959  43.0015 120.9505 0001312 247.3130 112.7584 15.27585184 32143
STARLINK-35879          
1 66960U 25288B   26178.84694700  .00016405  00000+0  60426-3 0  9990
2 66960  42.9989 121.4192 0001369 244.3080 115.7630 15.27584492 32139
STARLINK-35761          
1 66961U 25288C   26178.87763878  .00018466  00000+0  67872-3 0  9998
2 66961  43.0039 120.7950 0001498 258.8869 101.1815 15.27587943 32149
STARLINK-35874          
1 66962U 25288D   26178.87393816  .00018153  00000+0  66805-3 0  9998
2 66962  43.0019 121.6231 0001517 278.1072  81.9607 15.27556385 32132
STARLINK-36133          
1 66963U 25288E   26178.84823041  .00025834  00000+0  94460-3 0  9996
2 66963  43.0005 121.4284 0002220 280.9729  79.0873 15.27594362 32136
STARLINK-36104          
1 66964U 25288F   26178.53800473  .00018156  00000+0  66761-3 0  9999
2 66964  42.9967 123.4021 0001088 280.2702  79.8027 15.27582761 32081
STARLINK-36067          
1 66965U 25288G   26178.88920397  .00012248  00000+0  45386-3 0  9992
2 66965  43.0020 120.8833 0001215 264.7288  95.3425 15.27581272 32142
STARLINK-36139          
1 66966U 25288H   26178.89048545  .00020830  00000+0  76408-3 0  9995
2 66966  43.0010 120.8870 0000940 274.9955  85.0789 15.27590593 32146
STARLINK-36136          
1 66967U 25288J   26178.90076438  .00020067  00000+0  73691-3 0  9993
2 66967  43.0019 120.9625 0001146 254.8056 105.2669 15.27572718 32144
STARLINK-36152          
1 66968U 25288K   26178.13925680  .00023547  00000+0  86191-3 0  9996
2 66968  42.9976 125.5686 0000691 131.4746 228.6165 15.27601446 32022
STARLINK-36149          
1 66969U 25288L   26178.54057143  .00018104  00000+0  66589-3 0  9994
2 66969  42.9982 123.4224 0001555 269.6951  90.3722 15.27574828 32089
STARLINK-35703          
1 66970U 25288M   26178.88662533  .00015924  00000+0  58692-3 0  9991
2 66970  42.9969 120.8554 0000869 244.4576 115.6186 15.27580938 32145
STARLINK-35678          
1 66971U 25288N   26178.84051988  .00021128  00000+0  77491-3 0  9995
2 66971  43.0020 121.3680 0001415 233.6934 126.3787 15.27587334 32130
STARLINK-34846          
1 66972U 25288P   26178.89434309  .00016698  00000+0  61485-3 0  9995
2 66972  43.0010 120.9144 0000990 247.7597 112.3150 15.27585656 32143
STARLINK-35778          
1 66973U 25288Q   26178.88147648 -.00005871  00000+0 -20409-3 0  9996
2 66973  43.0047 120.8242 0001015 283.1135  76.9603 15.27568037 32145
STARLINK-35780          
1 66974U 25288R   26178.87506465  .00018054  00000+0  66414-3 0  9993
2 66974  43.0008 120.7673 0001211 263.7504  96.3210 15.27571873 32144
STARLINK-35777          
1 66975U 25288S   26178.87264610  .00016433  00000+0  60525-3 0  9993
2 66975  42.9998 121.6161 0001223 266.1738  93.8974 15.27586422 32136
STARLINK-35772          
1 66976U 25288T   26178.83924138  .00016845  00000+0  62020-3 0  9997
2 66976  43.0004 121.4044 0001308 219.8039 140.2717 15.27582582 32133
STARLINK-35770          
1 66977U 25288U   26178.85722605  .00027315  00000+0  99806-3 0  9991
2 66977  42.9978 121.4942 0002018 271.1628  88.8992 15.27592384 32136
STARLINK-35787          
1 66978U 25288V   26178.88534536  .00017065  00000+0  62811-3 0  9996
2 66978  43.0017 120.8523 0000934 263.2757  96.7989 15.27586228 32146
STARLINK-36107          
1 66979U 25288W   26178.54442242  .00010966  00000+0  40732-3 0  9993
2 66979  42.9990 123.4445 0001357 269.7319  90.3377 15.27587781 32081
STARLINK-36086          
1 66980U 25288X   26178.86107950  .00027368  00000+0  10000-2 0  9992
2 66980  42.9986 121.5270 0000725 243.7753 116.3024 15.27591164 32139
